SWARM B                 
1 39451U 13067A   26197.33043248  .00001931  00000+0  67911-4 0  9992
2 39451  87.7460 333.4636 0002272  83.4489 276.7019 15.28721193687690
SWARM A                 
1 39452U 13067B   26197.24954148  .00005556  00000+0  93420-4 0  9994
2 39452  87.3295  45.4341 0003330  93.3412 266.8230 15.51470311710756
SWARM C                 
1 39453U 13067C   26197.24944868  .00005621  00000+0  94517-4 0  9994
2 39453  87.3295  44.0150 0003324  93.5547 266.6094 15.51469678710710
BRITE-CA1 (TORONTO)     
1 40020U 14033L   26196.84598904  .00000513  00000+0  84679-4 0  9994
2 40020  97.9773 325.2513 0078484 184.1727 175.8836 14.72723276646434
OCO 2                   
1 40059U 14035A   26197.27114872  .00000156  00000+0  44631-4 0  9991
2 40059  98.2020 138.1226 0001436  81.3965 278.7396 14.57132630640284
BRITE-PL2 (HEWELIUSZ)   
1 40119U 14049B   26197.22723983  .00000444  00000+0  46411-4 0  9995
2 40119  97.9120 309.4562 0014236  18.8456 341.3288 14.94688249645786
MMS 1                   
1 40482U 15011A   26197.33336806 -.00001428  00000+0  00000+0 0  9997
2 40482  72.5036 348.4163 8304209 168.1110  31.5545  0.28320079  1360
MMS 2                   
1 40483U 15011B   26197.33336806 -.00001429  00000+0  00000+0 0  9999
2 40483  72.5076 348.4153 8307023 168.1138  31.5416  0.28319995  1363
MMS 3                   
1 40484U 15011C   26197.33336806 -.00001428  00000+0  00000+0 0  9999
2 40484  72.5073 348.4271 8305393 168.1215  31.5157  0.28319999  1339
MMS 4                   
1 40485U 15011D   26197.33336806 -.00001428  00000+0  00000+0 0  9990
2 40485  72.5030 348.4105 8305280 168.1316  31.5123  0.28320157  1393
ASTROSAT                
1 40930U 15052A   26197.15315926  .00001103  00000+0  52606-4 0  9993
2 40930   5.9975 306.8559 0007389  88.5039 271.5935 14.82553079584136
DAMPE                   
1 41173U 15078A   26197.25645046  .00000828  00000+0  30356-4 0  9992
2 41173  97.4556 202.8682 0011452 341.7548  18.3280 15.30855652588998
PISAT                   
1 41784U 16059B   26196.95644708  .00000435  00000+0  81603-4 0  9995
2 41784  97.8191 196.1748 0030459 112.4897 247.9539 14.69030442523967
HXMT (HUIYAN)           
1 42758U 17034A   26197.00916941  .00002239  00000+0  11623-3 0  9997
2 42758  43.0154  22.5259 0032201 325.8527  34.0250 15.18692866502047
FLYING LAPTOP           
1 42831U 17042G   26197.31311774  .00001786  00000+0  14276-3 0  9998
2 42831  97.4809 351.7505 0019645  28.9665 331.2646 15.01316774490827
ZHANGHENG 1-01 (CSES-1) 
1 43194U 18015C   26197.28567567  .00003637  00000+0  16864-3 0  9993
2 43194  97.6892   3.5259 0016486 161.2080 198.9767 15.20615562469066
SALSAT                  
1 46495U 20068K   26197.24901140  .00003822  00000+0  13369-3 0  9999
2 46495  97.8856 202.0925 0009321 188.9749 171.1325 15.30180346319806
IXPE                    
1 49954U 21121A   26197.33336806  .00006328  00000+0  31867-3 0  9991
2 49954   0.2313  96.5485 0007141 164.2591 309.7504 15.10493204  5596
SMILE                   
1 69123U 26109A   26194.95939329  .00000936  00000+0  00000+0 0  9996
2 69123  70.0512 206.6048 8313707 286.9544   0.1879  0.47500629    65
