OBJECT_NAME,OBJECT_ID,EPOCH,MEAN_MOTION,ECCENTRICITY,INCLINATION,RA_OF_ASC_NODE,ARG_OF_PERICENTER,MEAN_ANOMALY,EPHEMERIS_TYPE,CLASSIFICATION_TYPE,NORAD_CAT_ID,ELEMENT_SET_NO,REV_AT_EPOCH,BSTAR,MEAN_MOTION_DOT,MEAN_MOTION_DDOT
SWARM B,2013-067A,2026-07-16T07:55:49.366272,15.28721193,.00022726,87.7460,333.4636,83.4489,276.7019,0,U,39451,999,68769,.67910824E-4,.1931E-4,0
SWARM A,2013-067B,2026-07-16T05:59:20.383872,15.51470311,.00033305,87.3295,45.4341,93.3412,266.8230,0,U,39452,999,71075,.93419994E-4,.5556E-4,0
SWARM C,2013-067C,2026-07-16T05:59:12.365952,15.51469678,.00033247,87.3295,44.0150,93.5547,266.6094,0,U,39453,999,71071,.94517091E-4,.5621E-4,0
BRITE-CA1 (TORONTO),2014-033L,2026-07-15T20:18:13.453056,14.72723276,.0078484,97.9773,325.2513,184.1727,175.8836,0,U,40020,999,64643,.84679E-4,.513E-5,0
OCO 2,2014-035A,2026-07-16T06:30:27.249408,14.57132630,.00014369,98.2020,138.1226,81.3965,278.7396,0,U,40059,999,64028,.44631336E-4,.156E-5,0
BRITE-PL2 (HEWELIUSZ),2014-049B,2026-07-16T05:27:13.521312,14.94688249,.00142366,97.9120,309.4562,18.8456,341.3288,0,U,40119,999,64578,.46411224E-4,.444E-5,0
MMS 1,2015-011A,2026-07-16T08:00:03.000384,0.28320079,.83042094,72.5036,348.4163,168.1110,31.5545,0,U,40482,999,136,0,-.1428E-4,0
MMS 2,2015-011B,2026-07-16T08:00:03.000384,0.28319995,.83070233,72.5076,348.4153,168.1138,31.5416,0,U,40483,999,136,0,-.1429E-4,0
MMS 3,2015-011C,2026-07-16T08:00:03.000384,0.28319999,.83053931,72.5073,348.4271,168.1215,31.5157,0,U,40484,999,133,0,-.1428E-4,0
MMS 4,2015-011D,2026-07-16T08:00:03.000384,0.28320157,.83052804,72.5030,348.4105,168.1316,31.5123,0,U,40485,999,139,0,-.1428E-4,0
ASTROSAT,2015-052A,2026-07-16T03:40:32.960064,14.82553079,.00073897,5.9975,306.8559,88.5039,271.5935,0,U,40930,999,58413,.52606478E-4,.1103E-4,0
DAMPE,2015-078A,2026-07-16T06:09:17.319744,15.30855652,.00114527,97.4556,202.8682,341.7548,18.3280,0,U,41173,999,58899,.30356191E-4,.828E-5,0
PISAT,2016-059B,2026-07-15T22:57:17.027712,14.69030442,.0030459,97.8191,196.1748,112.4897,247.9539,0,U,41784,999,52396,.81603E-4,.435E-5,0
HXMT (HUIYAN),2017-034A,2026-07-16T00:13:12.237024,15.18692866,.00322019,43.0154,22.5259,325.8527,34.0250,0,U,42758,999,50204,.11622723E-3,.2239E-4,0
FLYING LAPTOP,2017-042G,2026-07-16T07:30:53.372736,15.01316774,.00196455,97.4809,351.7505,28.9665,331.2646,0,U,42831,999,49082,.1427554E-3,.1786E-4,0
ZHANGHENG 1-01 (CSES-1),2018-015C,2026-07-16T06:51:22.377888,15.20615562,.00164867,97.6892,3.5259,161.2080,198.9767,0,U,43194,999,46906,.16864467E-3,.3637E-4,0
SALSAT,2020-068K,2026-07-16T05:58:34.584960,15.30180346,.00093214,97.8856,202.0925,188.9749,171.1325,0,U,46495,999,31980,.1336874E-3,.3822E-4,0
IXPE,2021-121A,2026-07-16T08:00:03.000384,15.10493204,.00071413,0.2313,96.5485,164.2591,309.7504,0,U,49954,999,559,.31866936E-3,.6328E-4,0
SMILE,2026-109A,2026-07-13T23:01:31.580256,0.47500629,.83137076,70.0512,206.6048,286.9544,0.1879,0,U,69123,999,6,0,.936E-5,0
